0 COSMOS 2251 DEB
1 35956U 93036AUW 13282.90023270  .00001727  00000-0  13840-2 0  2536
2 35956 074.1050 130.2268 0338793 180.8530 179.2547 13.67845946203314
0 COSMOS 2251 DEB
1 35956U 93036AUW 13283.99727856  .00001808  00000-0  14444-2 0  2549
2 35956 074.1053 128.4337 0339860 178.6792 181.5473 13.67851534203464
0 COSMOS 2251 DEB
1 35956U 93036AUW 13285.24060304  .00001892  00000-0  15143-2 0  2558
2 35956 074.1033 126.3971 0338592 176.4783 183.9187 13.67858077203636
0 COSMOS 2251 DEB
1 35956U 93036AUW 13287.87350680  .00002153  00000-0  17238-2 0  2567
2 35956 074.1026 122.0927 0337844 171.4803 189.2787 13.67873053203994
0 COSMOS 2251 DEB
1 35956U 93036AUW 13289.18993870  .00002550  00000-0  20384-2 0  2575
2 35956 074.1043 119.9436 0337729 168.9751 192.0480 13.67887763204174
0 COSMOS 2251 DEB
1 35956U 93036AUW 13290.87200983  .00002645  00000-0  21131-2 0  2586
2 35956 074.1046 117.1929 0337786 165.8434 195.2870 13.67898687204402
0 COSMOS 2251 DEB
1 35956U 93036AUW 13292.18841787  .00002906  00000-0  23067-2 0  2596
2 35956 074.1054 115.0375 0340051 163.4019 197.9671 13.67911407204588
0 COSMOS 2251 DEB
1 35956U 93036AUW 13292.84659836  .00002985  00000-0  23668-2 0  2607
2 35956 074.1072 113.9619 0340302 162.1897 199.1919 13.67917307204679
0 COSMOS 2251 DEB
1 35956U 93036AUW 13293.13912351  .00003161  00000-0  25070-2 0  2611
2 35956 074.1016 113.4781 0340052 161.5641 199.8998 13.67923429204715
0 COSMOS 2251 DEB
1 35956U 93036AUW 13295.11369046  .00003585  00000-0  28421-2 0  2622
2 35956 074.0977 110.2440 0339639 157.5131 204.2126 13.67944132204982
